start=new Date('2022-10-22T00:00:00.000Z').valueOf();
sats=[{"NORAD_CAT_ID":"46559","ELEMENT_SET_NO":"999","ECCENTRICITY":"0.00021460","SITE":"AFETR","INCLINATION":"53.0546","OBJECT_ID":"2020-070AD","COUNTRY_CODE":"US","LAUNCH_DATE":"2020-10-06","MEAN_MOTION_DOT":"0.00000011","TIME_SYSTEM":"UTC","SEMIMAJOR_AXIS":"6925.356","PERIAPSIS":"545.735","MEAN_MOTION":"15.06397661","REV_AT_EPOCH":"11373","TLE_LINE2":"2 46559  53.0546 292.0229 0002146  42.0047 318.1107 15.06397661113730","CENTER_NAME":"EARTH","RCS_SIZE":"LARGE","EPHEMERIS_TYPE":"0","DECAY_DATE":null,"APOAPSIS":"548.707","PERIOD":"95.592","MEAN_ELEMENT_THEORY":"SGP4","BSTAR":"0.00001965100000","MEAN_ANOMALY":"318.1107","TLE_LINE1":"1 46559U 20070AD  22294.40568186  .00000011  00000-0  19651-4 0  9993","ARG_OF_PERICENTER":"42.0047","OBJECT_NAME":"STARLINK-1681","MEAN_MOTION_DDOT":"0.0000000000000","CLASSIFICATION_TYPE":"U","EPOCH":"2022-10-21T09:44:10.912704","FILE":"3627579","GP_ID":"215774272","OBJECT_TYPE":"PAYLOAD","RA_OF_ASC_NODE":"292.0229","REF_FRAME":"TEME"},{"MEAN_MOTION_DDOT":"0.0000000000000","EPOCH":"2022-10-21T18:21:02.974464","CLASSIFICATION_TYPE":"U","FILE":"3628413","OBJECT_TYPE":"PAYLOAD","RA_OF_ASC_NODE":"305.4196","GP_ID":"215841322","REF_FRAME":"TEME","DECAY_DATE":null,"APOAPSIS":"548.802","RCS_SIZE":"LARGE","EPHEMERIS_TYPE":"0","MEAN_ELEMENT_THEORY":"SGP4","PERIOD":"95.592","TLE_LINE1":"1 46560U 20070AE  22294.76461776  .00000235  00000-0  34703-4 0  9994","MEAN_ANOMALY":"314.1832","BSTAR":"0.00003470300000","ARG_OF_PERICENTER":"45.9348","OBJECT_NAME":"STARLINK-1706","MEAN_MOTION_DOT":"0.00000235","MEAN_MOTION":"15.06406451","PERIAPSIS":"545.586","SEMIMAJOR_AXIS":"6925.329","TIME_SYSTEM":"UTC","REV_AT_EPOCH":"11358","CENTER_NAME":"EARTH","TLE_LINE2":"2 46560  53.0555 305.4196 0002322  45.9348 314.1832 15.06406451113588","NORAD_CAT_ID":"46560","ELEMENT_SET_NO":"999","SITE":"AFETR","ECCENTRICITY":"0.00023220","INCLINATION":"53.0555","COUNTRY_CODE":"US","LAUNCH_DATE":"2020-10-06","OBJECT_ID":"2020-070AE"},{"TIME_SYSTEM":"UTC","PERIAPSIS":"545.423","SEMIMAJOR_AXIS":"6925.321","MEAN_MOTION":"15.06409075","MEAN_MOTION_DOT":"0.00003131","TLE_LINE2":"2 46561  53.0536 306.5431 0002545  37.9574 322.1594 15.06409075113546","CENTER_NAME":"EARTH","REV_AT_EPOCH":"11354","INCLINATION":"53.0536","ELEMENT_SET_NO":"999","NORAD_CAT_ID":"46561","SITE":"AFETR","ECCENTRICITY":"0.00025450","OBJECT_ID":"2020-070AF","COUNTRY_CODE":"US","LAUNCH_DATE":"2020-10-06","FILE":"3628413","MEAN_MOTION_DDOT":"0.0000000000000","CLASSIFICATION_TYPE":"U","EPOCH":"2022-10-21T12:24:04.790304","REF_FRAME":"TEME","GP_ID":"215840072","RA_OF_ASC_NODE":"306.5431","OBJECT_TYPE":"PAYLOAD","PERIOD":"95.592","MEAN_ELEMENT_THEORY":"SGP4","RCS_SIZE":"LARGE","EPHEMERIS_TYPE":"0","APOAPSIS":"548.948","DECAY_DATE":null,"ARG_OF_PERICENTER":"37.9574","OBJECT_NAME":"STARLINK-1709","BSTAR":"0.00022894000000","TLE_LINE1":"1 46561U 20070AF  22294.51672211  .00003131  00000-0  22894-3 0  9991","MEAN_ANOMALY":"322.1594"},{"GP_ID":"215840321","RA_OF_ASC_NODE":"300.6197","OBJECT_TYPE":"PAYLOAD","REF_FRAME":"TEME","MEAN_MOTION_DDOT":"0.0000000000000","EPOCH":"2022-10-21T17:08:42.796608","CLASSIFICATION_TYPE":"U","FILE":"3628413","BSTAR":"0.00003100400000","TLE_LINE1":"1 46562U 20070AG  22294.71438422  .00000180  00000-0  31004-4 0  9993","MEAN_ANOMALY":"316.0717","OBJECT_NAME":"STARLINK-1714","ARG_OF_PERICENTER":"44.0441","EPHEMERIS_TYPE":"0","RCS_SIZE":"LARGE","APOAPSIS":"548.712","DECAY_DATE":null,"PERIOD":"95.593","MEAN_ELEMENT_THEORY":"SGP4","REV_AT_EPOCH":"11364","TLE_LINE2":"2 46562  53.0539 300.6197 0002132  44.0441 316.0717 15.06392710113645","CENTER_NAME":"EARTH","MEAN_MOTION_DOT":"0.00000180","TIME_SYSTEM":"UTC","PERIAPSIS":"545.759","SEMIMAJOR_AXIS":"6925.371","MEAN_MOTION":"15.06392710","OBJECT_ID":"2020-070AG","COUNTRY_CODE":"US","LAUNCH_DATE":"2020-10-06","ELEMENT_SET_NO":"999","NORAD_CAT_ID":"46562","SITE":"AFETR","ECCENTRICITY":"0.00021320","INCLINATION":"53.0539"},{"PERIOD":"95.591","MEAN_ELEMENT_THEORY":"SGP4","EPHEMERIS_TYPE":"0","RCS_SIZE":"LARGE","APOAPSIS":"548.900","DECAY_DATE":null,"ARG_OF_PERICENTER":"45.0234","OBJECT_NAME":"STARLINK-1730","BSTAR":"0.00017149000000","TLE_LINE1":"1 46563U 20070AH  22294.56419504  .00002274  00000-0  17149-3 0  9996","MEAN_ANOMALY":"315.0955","FILE":"3628413","MEAN_MOTION_DDOT":"0.0000000000000","EPOCH":"2022-10-21T13:32:26.451456","CLASSIFICATION_TYPE":"U","REF_FRAME":"TEME","GP_ID":"215841072","OBJECT_TYPE":"PAYLOAD","RA_OF_ASC_NODE":"301.3272","INCLINATION":"53.0529","NORAD_CAT_ID":"46563","ELEMENT_SET_NO":"999","ECCENTRICITY":"0.00024810","SITE":"AFETR","OBJECT_ID":"2020-070AH","COUNTRY_CODE":"US","LAUNCH_DATE":"2020-10-06","TIME_SYSTEM":"UTC","PERIAPSIS":"545.464","SEMIMAJOR_AXIS":"6925.317","MEAN_MOTION":"15.06410343","MEAN_MOTION_DOT":"0.00002274","TLE_LINE2":"2 46563  53.0529 301.3272 0002481  45.0234 315.0955 15.06410343113629","CENTER_NAME":"EARTH","REV_AT_EPOCH":"11362"},{"ELEMENT_SET_NO":"999","NORAD_CAT_ID":"46564","SITE":"AFETR","ECCENTRICITY":"0.00023460","INCLINATION":"53.0550","COUNTRY_CODE":"US","LAUNCH_DATE":"2020-10-06","OBJECT_ID":"2020-070AJ","MEAN_MOTION_DOT":"-0.00000026","SEMIMAJOR_AXIS":"6925.375","PERIAPSIS":"545.615","MEAN_MOTION":"15.06391346","TIME_SYSTEM":"UTC","REV_AT_EPOCH":"11365","CENTER_NAME":"EARTH","TLE_LINE2":"2 46564  53.0550 300.4909 0002346  37.3871 322.7281 15.06391346113653","DECAY_DATE":null,"APOAPSIS":"548.865","EPHEMERIS_TYPE":"0","RCS_SIZE":"LARGE","MEAN_ELEMENT_THEORY":"SGP4","PERIOD":"95.593","TLE_LINE1":"1 46564U 20070AJ  22294.74481399 -.00000026  00000-0  17197-4 0  9996","MEAN_ANOMALY":"322.7281","BSTAR":"0.00001719700000","OBJECT_NAME":"STARLINK-1733","ARG_OF_PERICENTER":"37.3871","MEAN_MOTION_DDOT":"0.0000000000000","CLASSIFICATION_TYPE":"U","EPOCH":"2022-10-21T17:52:31.928736","FILE":"3628413","OBJECT_TYPE":"PAYLOAD","RA_OF_ASC_NODE":"300.4909","GP_ID":"215840824","REF_FRAME":"TEME"},{"INCLINATION":"53.0542","ECCENTRICITY":"0.00021520","SITE":"AFETR","ELEMENT_SET_NO":"999","NORAD_CAT_ID":"46565","LAUNCH_DATE":"2020-10-06","COUNTRY_CODE":"US","OBJECT_ID":"2020-070AK","PERIAPSIS":"545.717","MEAN_MOTION":"15.06402047","SEMIMAJOR_AXIS":"6925.342","TIME_SYSTEM":"UTC","MEAN_MOTION_DOT":"0.00002601","CENTER_NAME":"EARTH","TLE_LINE2":"2 46565  53.0542 300.6110 0002152  45.0774 315.0389 15.06402047113648","REV_AT_EPOCH":"11364","MEAN_ELEMENT_THEORY":"SGP4","PERIOD":"95.592","DECAY_DATE":null,"APOAPSIS":"548.698","EPHEMERIS_TYPE":"0","RCS_SIZE":"LARGE","OBJECT_NAME":"STARLINK-1735","ARG_OF_PERICENTER":"45.0774","TLE_LINE1":"1 46565U 20070AK  22294.72269977  .00002601  00000-0  19347-3 0  9999","MEAN_ANOMALY":"315.0389","BSTAR":"0.00019347000000","FILE":"3628413","EPOCH":"2022-10-21T17:20:41.260128","CLASSIFICATION_TYPE":"U","MEAN_MOTION_DDOT":"0.0000000000000","REF_FRAME":"TEME","OBJECT_TYPE":"PAYLOAD","RA_OF_ASC_NODE":"300.6110","GP_ID":"215839574"},{"REF_FRAME":"TEME","GP_ID":"215774022","RA_OF_ASC_NODE":"301.8622","OBJECT_TYPE":"PAYLOAD","FILE":"3627579","MEAN_MOTION_DDOT":"0.0000000000000","CLASSIFICATION_TYPE":"U","EPOCH":"2022-10-21T10:37:17.573664","OBJECT_NAME":"STARLINK-1740","ARG_OF_PERICENTER":"42.3170","BSTAR":"0.00006446900000","TLE_LINE1":"1 46566U 20070AL  22294.44256451  .00000679  00000-0  64469-4 0  9991","MEAN_ANOMALY":"317.7985","PERIOD":"95.592","MEAN_ELEMENT_THEORY":"SGP4","EPHEMERIS_TYPE":"0","RCS_SIZE":"LARGE","APOAPSIS":"548.717","DECAY_DATE":null,"TLE_LINE2":"2 46566  53.0561 301.8622 0002150  42.3170 317.7985 15.06395311113601","CENTER_NAME":"EARTH","REV_AT_EPOCH":"11360","TIME_SYSTEM":"UTC","PERIAPSIS":"545.739","MEAN_MOTION":"15.06395311","SEMIMAJOR_AXIS":"6925.363","MEAN_MOTION_DOT":"0.00000679","OBJECT_ID":"2020-070AL","COUNTRY_CODE":"US","LAUNCH_DATE":"2020-10-06","INCLINATION":"53.0561","NORAD_CAT_ID":"46566","ELEMENT_SET_NO":"999","SITE":"AFETR","ECCENTRICITY":"0.00021500"},{"MEAN_ANOMALY":"311.7308","TLE_LINE1":"1 46567U 20070AM  22294.73743399  .00001929  00000-0  14839-3 0  9990","BSTAR":"0.00014839000000","OBJECT_NAME":"STARLINK-1741","ARG_OF_PERICENTER":"48.3849","APOAPSIS":"548.564","DECAY_DATE":null,"RCS_SIZE":"LARGE","EPHEMERIS_TYPE":"0","MEAN_ELEMENT_THEORY":"SGP4","PERIOD":"95.592","OBJECT_TYPE":"PAYLOAD","RA_OF_ASC_NODE":"300.5308","GP_ID":"215840574","REF_FRAME":"TEME","EPOCH":"2022-10-21T17:41:54.296736","CLASSIFICATION_TYPE":"U","MEAN_MOTION_DDOT":"0.0000000000000","FILE":"3628413","LAUNCH_DATE":"2020-10-06","COUNTRY_CODE":"US","OBJECT_ID":"2020-070AM","SITE":"AFETR","ECCENTRICITY":"0.00019620","ELEMENT_SET_NO":"999","NORAD_CAT_ID":"46567","INCLINATION":"53.0563","REV_AT_EPOCH":"11365","CENTER_NAME":"EARTH","TLE_LINE2":"2 46567  53.0563 300.5308 0001962  48.3849 311.7308 15.06402570113654","MEAN_MOTION_DOT":"0.00001929","SEMIMAJOR_AXIS":"6925.341","PERIAPSIS":"545.847","MEAN_MOTION":"15.06402570","TIME_SYSTEM":"UTC"},{"TLE_LINE1":"1 46569U 20070AP  22294.55314790  .00000300  00000-0  39076-4 0  9994","MEAN_ANOMALY":"317.4742","BSTAR":"0.00003907600000","OBJECT_NAME":"STARLINK-1747","ARG_OF_PERICENTER":"42.6417","DECAY_DATE":null,"APOAPSIS":"548.720","RCS_SIZE":"LARGE","EPHEMERIS_TYPE":"0","MEAN_ELEMENT_THEORY":"SGP4","PERIOD":"95.592","OBJECT_TYPE":"PAYLOAD","RA_OF_ASC_NODE":"301.3642","GP_ID":"215841323","REF_FRAME":"TEME","MEAN_MOTION_DDOT":"0.0000000000000","EPOCH":"2022-10-21T13:16:31.978560","CLASSIFICATION_TYPE":"U","FILE":"3628413","COUNTRY_CODE":"US","LAUNCH_DATE":"2020-10-06","OBJECT_ID":"2020-070AP","ELEMENT_SET_NO":"999","NORAD_CAT_ID":"46569","ECCENTRICITY":"0.00021910","SITE":"AFETR","INCLINATION":"53.0559","REV_AT_EPOCH":"11362","CENTER_NAME":"EARTH","TLE_LINE2":"2 46569  53.0559 301.3642 0002191  42.6417 317.4742 15.06403406113625","MEAN_MOTION_DOT":"0.00000300","SEMIMAJOR_AXIS":"6925.338","PERIAPSIS":"545.686","MEAN_MOTION":"15.06403406","TIME_SYSTEM":"UTC"}];
